OPS 6582 (TRANSIT 5B-5) 
1 00965U 64083D   21214.88628500  .00000021  00000-0  15343-4 0  9991
2 00965  90.0206 194.5339 0042974  80.7155 307.0974 13.56758499802327
OSCAR 7 (AO-7)          
1 07530U 74089B   21214.72034639 -.00000032  00000-0  82794-4 0  9997
2 07530 101.8569 189.1800 0011898 294.8191 240.6333 12.53649633137526
UOSAT 2 (UO-11)         
1 14781U 84021B   21214.73831823  .00000082  00000-0  16037-4 0  9992
2 14781  97.5939 212.3032 0006991 294.1338  65.9146 14.83308449992794
NOAA 9                  
1 15427U 84123A   21214.87230264  .00000012  00000-0  29088-4 0  9993
2 15427  98.9966 178.0988 0014809 353.2975  34.2028 14.16139143891522
LUSAT (LO-19)           
1 20442U 90005G   21215.12953046 -.00000003  00000-0  15556-4 0  9997
2 20442  98.7441 171.0289 0012357  28.8934 331.2931 14.32993072647578
ITAMSAT (IO-26)         
1 22826U 93061D   21215.21351938  .00000000  00000-0  17992-4 0  9994
2 22826  98.9105 233.8774 0007962 242.8678 117.1692 14.30460470453164
RADIO ROSTO (RS-15)     
1 23439U 94085A   21214.91059786 -.00000037  00000-0  15882-3 0  9990
2 23439  64.8153 300.8251 0162364 327.0678  32.0212 11.27569946 95570
JAS-2 (FO-29)           
1 24278U 96046B   21214.66448804 -.00000055  00000-0 -20773-4 0  9993
2 24278  98.5650 276.5088 0350772  30.0877 331.9916 13.53105066232495
NOAA 15                 
1 25338U 98030A   21215.30610760  .00000087  00000-0  54714-4 0  9995
2 25338  98.6795 243.4053 0011183 139.8428 220.3581 14.26049776207924
TECHSAT 1B (GO-32)      
1 25397U 98043D   21214.78978178 -.00000016  00000-0  12614-4 0  9991
2 25397  98.7727 160.2208 0000895   9.4398 350.6797 14.23712600198081
ISS (ZARYA)             
1 25544U 98067A   21214.88086691 -.00000636  00000-0 -34509-5 0  9999
2 25544  51.6433 111.8195 0001239 241.3032 212.0072 15.48861899295830
ORSTED                  
1 25635U 99008B   21214.79828203  .00000078  00000-0  25604-4 0  9992
2 25635  96.4768 148.6887 0140057 117.5980 243.9522 14.48304907184159
PHASE 3D (AO-40)        
1 26609U 00072B   21213.49942331 -.00000070  00000-0  00000-0 0  9994
2 26609   9.1404 317.6806 7946847 277.7410   8.5221  1.25586851 95134
PCSAT (NO-44)           
1 26931U 01043C   21215.22749092 -.00000037  00000-0  17435-4 0  9990
2 26931  67.0511 159.7232 0005862 263.0196  97.0239 14.30627043 36043
SAUDISAT 1C (SO-50)     
1 27607U 02058C   21215.19398017  .00000055  00000-0  28348-4 0  9995
2 27607  64.5541 195.4136 0046351   6.0274 354.1376 14.75771409  1618
CUTE-1 (CO-55)          
1 27844U 03031E   21214.76492133  .00000046  00000-0  40168-4 0  9990
2 27844  98.6799 222.2737 0008903 309.8582  50.1812 14.22323242938568
CUBESAT XI-IV (CO-57)   
1 27848U 03031J   21214.77190643  .00000036  00000-0  36162-4 0  9994
2 27848  98.6854 222.8423 0009009 324.4371  35.6205 14.21898827938399
MOZHAYETS 4 (RS-22)     
1 27939U 03042A   21215.24028408  .00000131  00000-0  32097-4 0  9998
2 27939  98.1470 352.0228 0014021 128.9216 231.3238 14.67006637954381
INMARSAT 4-F1           
1 28628U 05009A   21214.72202035 -.00000259  00000-0  00000-0 0  9998
2 28628   3.3936  31.5622 0002754 112.5766 210.8069  1.00272120 59822
NOAA 18                 
1 28654U 05018A   21215.40614969  .00000077  00000-0  65892-4 0  9997
2 28654  98.9913 280.4511 0014971 146.5813 213.6307 14.12626990835162
CUBESAT XI-V            
1 28895U 05043F   21214.83568389  .00000139  00000-0  35484-4 0  9995
2 28895  98.0647 347.0762 0017969  66.7856 293.5237 14.63939493841024
METOP-A                 
1 29499U 06044A   21215.41932969  .00000000  00000-0  19122-4 0  9990
2 29499  98.4688 252.8060 0001642 110.2498 312.9110 14.21505933767414
CARTOSAT-2 (IRS-P7)     
1 29710U 07001B   21215.12433479  .00004440  00000-0  13449-3 0  9997
2 29710  97.8738 299.6588 0171176  85.6520 276.4251 15.21516383787744
FALCONSAT-3             
1 30776U 07006E   21214.55661222  .00003904  00000-0  92793-4 0  9995
2 30776  35.4331 163.8332 0003270 303.5411  56.5005 15.41221590800222
CAPE-1                  
1 31130U 07012P   21215.10476110  .00000106  00000-0  33049-4 0  9999
2 31130  98.2345 153.6663 0095157 199.0324 160.7309 14.56707300758735
CARTOSAT-2A             
1 32783U 08021A   21215.16678613 -.00000046  00000-0  67433-6 0  9993
2 32783  97.8693 273.3810 0014109 114.7964 245.4720 14.78701810715989
CUTE-1.7+APD II (CO-65) 
1 32785U 08021C   21214.70868071  .00000239  00000-0  31210-4 0  9998
2 32785  97.6139 191.7647 0012175 203.7074 156.3584 14.88762969719050
COMPASS-1               
1 32787U 08021E   21214.60315614  .00000502  00000-0  51874-4 0  9990
2 32787  97.5311 203.6552 0013492 129.6771 230.5642 14.94202751720422
AAUSAT-II               
1 32788U 08021F   21214.45169296  .00000892  00000-0  85012-4 0  9990
2 32788  97.5062 207.1853 0013216 112.6634 247.5986 14.95667495720737
DELFI-C3 (DO-64)        
1 32789U 08021G   21215.09481029  .00001962  00000-0  12711-3 0  9997
2 32789  97.3739 248.6619 0011078 351.2501   8.8533 15.09205725723969
SEEDS II (CO-66)        
1 32791U 08021J   21214.38655908  .00000377  00000-0  42954-4 0  9992
2 32791  97.5734 197.3206 0013396 166.5501 193.6078 14.91464666719708
YUBILEINY (RS-30)       
1 32953U 08025A   21215.14950128  .00000021  00000-0  80971-4 0  9990
2 32953  82.5031  21.8825 0018804 234.0172 125.9162 12.43103163598786
FENGYUN 3A              
1 32958U 08026A   21215.17623818  .00000022  00000-0  30574-4 0  9997
2 32958  98.4533 186.6793 0007879 218.4515 141.6100 14.18663190683209
PRISM (HITOMI)          
1 33493U 09002B   21214.62730330  .00000499  00000-0  47985-4 0  9996
2 33493  98.1907 179.4063 0015522 131.4531 228.8025 14.97752177681238
STARS (KUKAI)           
1 33498U 09002G   21215.13485031  .00000200  00000-0  34208-4 0  9997
2 33498  98.2079  96.1900 0010433 189.2897 170.8122 14.79387544674789
KKS-1 (KISEKI)          
1 33499U 09002H   21215.12239459  .00000099  00000-0  22335-4 0  9992
2 33499  98.2627  86.1176 0007772 249.9653 110.0719 14.75680934673725
NOAA 19                 
1 33591U 09005A   21215.30295955  .00000054  00000-0  54358-4 0  9992
2 33591  99.1817 237.1646 0013957   5.5180 354.6142 14.12486902643534
SWISSCUBE               
1 35932U 09051B   21215.06803117  .00000134  00000-0  41234-4 0  9990
2 35932  98.6006  56.5476 0006653 312.0119  48.0511 14.56559951629784
BEESAT-1                
1 35933U 09051C   21214.55104061  .00000104  00000-0  34324-4 0  9995
2 35933  98.5966  57.8162 0005127 330.9607  29.1304 14.56614415629744
ITUPSAT1                
1 35935U 09051E   21214.51393919  .00000089  00000-0  31539-4 0  9992
2 35935  98.6070  57.9068 0007447 328.8555  31.2199 14.55744922629476
XIWANG-1 (HOPE-1)       
1 36122U 09072B   21214.73982712 -.00000036  00000-0  17522-4 0  9992
2 36122 100.1334 193.4905 0007328   0.2808 359.8309 13.16361680558984
CARTOSAT-2B             
1 36795U 10035A   21215.13641516  .00000089  00000-0  19354-4 0  9990
2 36795  97.9975 273.2189 0013463 187.3306 172.7724 14.78650031597023
TISAT 1                 
1 36799U 10035E   21214.80019460  .00000423  00000-0  48023-4 0  9991
2 36799  98.2056  47.4922 0013409  64.6253 295.6351 14.91800174600245
FENGYUN 3B              
1 37214U 10059A   21215.23776941 -.00000002  00000-0  22454-4 0  9996
2 37214  99.0805 210.2344 0016889 177.8349 182.2905 14.15993385555951
JUGNU                   
1 37839U 11058B   21214.95245311  .00000315  00000-0  25934-4 0  9991
2 37839  19.9620 307.1970 0018742 245.2878 272.2314 14.12720147507152
SRMSAT                  
1 37841U 11058D   21215.12578753  .00000279  00000-0  80384-5 0  9993
2 37841  19.9740  18.9872 0011891  86.4169  69.5996 14.10699956506469
M-CUBED & EXP-1 PRIME   
1 37855U 11061F   21215.13778004  .00001973  00000-0  10133-3 0  9999
2 37855 101.7114 162.7551 0165777 291.8473  66.5180 15.07968744533681
HORYU-2                 
1 38340U 12025D   21214.64811842  .00000175  00000-0  33215-4 0  9993
2 38340  98.2303 282.8644 0011974 161.6931 198.4711 14.76076247485202
METOP-B                 
1 38771U 12049A   21215.26582591 -.00000008  00000-0  16582-4 0  9996
2 38771  98.7119 274.7437 0000749 161.7882 286.5002 14.21488834460523
SARAL                   
1 39086U 13009A   21215.13300328  .00000003  00000-0  17247-4 0  9998
2 39086  98.5470  40.4802 0002036 103.0138 257.1273 14.32057477440922
AAUSAT 3                
1 39087U 13009B   21215.06399740  .00000087  00000-0  44560-4 0  9997
2 39087  98.4229  57.2963 0013095 132.1977 228.0313 14.35955259441885
STRAND-1                
1 39090U 13009E   21214.49017711 -.00000004  00000-0  13655-4 0  9993
2 39090  98.4254  55.5986 0009950 135.8491 224.3491 14.35174394441642
BRITE-AUSTRIA           
1 39091U 13009F   21215.03204164  .00000023  00000-0  23080-4 0  9998
2 39091  98.4259  55.2632 0011200 141.4056 218.7933 14.35196269441760
UNIBRITE                
1 39092U 13009G   21214.53706618  .00000000  00000-0  14837-4 0  9999
2 39092  98.4288  54.4921 0010165 137.4610 222.7364 14.35066808441640
SOMP                    
1 39134U 13015E   21215.07496864  .00001932  00000-0  90842-4 0  9997
2 39134  64.8641  20.8242 0013143 319.6840  40.3313 15.22829870458692
BEESAT-3                
1 39135U 13015F   21214.97625218  .00001503  00000-0  79669-4 0  9991
2 39135  64.8665  51.1080 0009024 337.4591  22.6138 15.19569415458106
BEESAT-2                
1 39136U 13015G   21214.99406459  .00001379  00000-0  75043-4 0  9991
2 39136  64.8749  57.6370 0021863 242.1853 117.7058 15.18908593457986
NEE-01 PEGASO           
1 39151U 13018B   21214.72560564  .00000179  00000-0  30355-4 0  9994
2 39151  97.9819 316.9184 0016447 203.7689 156.2764 14.80379414446515
CUBEBUG-1 (CAPITAN BETO)
1 39153U 13018D   21214.52220637  .00000217  00000-0  34939-4 0  9993
2 39153  97.9974 320.0966 0016393 199.4464 160.6125 14.80964457446624
